OBJECT_NAME,OBJECT_ID,EPOCH,MEAN_MOTION,ECCENTRICITY,INCLINATION,RA_OF_ASC_NODE,ARG_OF_PERICENTER,MEAN_ANOMALY,EPHEMERIS_TYPE,CLASSIFICATION_TYPE,NORAD_CAT_ID,ELEMENT_SET_NO,REV_AT_EPOCH,BSTAR,MEAN_MOTION_DOT,MEAN_MOTION_DDOT
SL-16 R/B,1994-077B,2026-06-26T05:40:21.129888,14.15577022,.00034176,70.9827,124.1247,320.1068,39.9803,0,U,23405,999,63159,.11246616E-3,.172E-5,0
ARIANE 40+ R/B,1995-021B,2026-06-26T03:45:10.673856,14.39837851,.00070261,98.4408,247.1017,166.9741,246.3819,0,U,23561,999,63485,.8522881E-4,.224E-5,0
SL-16 R/B,1995-058B,2026-06-25T19:47:21.674688,14.15512019,.00143196,71.0229,313.2231,308.5505,51.4334,0,U,23705,999,58315,.5260386E-5,-.37E-6,0
SL-16 R/B,1996-051B,2026-06-25T19:30:41.808960,14.12448848,.00162058,70.7650,306.3931,324.3969,35.6069,0,U,24298,999,53691,.90524275E-4,.118E-5,0
ORBVIEW 2 (SEASTAR),1997-037A,2026-06-26T05:17:10.432896,14.35557691,.00033284,98.8694,344.4899,98.3377,261.8185,0,U,24883,999,52404,.10297491E-3,.25E-5,0
SL-16 R/B,1998-043G,2026-06-25T20:27:42.849792,14.26069931,.00108671,98.8367,131.0866,63.8391,296.3905,0,U,25400,999,45440,.32940894E-4,.33E-6,0
SL-16 R/B,1998-045B,2026-06-25T18:46:42.968928,14.16203221,.00089912,71.0120,314.2524,230.4733,129.5596,0,U,25407,999,44240,.12315485E-3,.196E-5,0
ISS (ZARYA),1998-067A,2026-06-26T03:43:15.671136,15.49434804,.00043588,51.6325,255.7018,233.1468,126.9121,0,U,25544,999,57314,.17696555E-3,.9461E-4,0
CZ-4B R/B,1999-025C,2026-06-26T02:18:32.353920,14.18284810,.00377195,98.6480,218.7104,34.5785,19.4363,0,U,25732,999,40353,.44934153E-4,.5E-6,0
OKEAN-O,1999-039A,2026-06-26T03:12:47.125728,14.80477262,.0001325,97.9313,235.8290,70.1246,290.0109,0,U,25860,999,45043,.80883613E-4,.567E-5,0
SL-16 R/B,1999-039B,2026-06-26T03:32:09.934080,14.81853160,.00133791,97.9834,235.9848,264.8931,95.0755,0,U,25861,999,45292,.65152584E-4,.462E-5,0
DELTA 2 R/B,1999-041E,2026-06-25T12:39:45.760608,14.12028352,.050095,51.7634,230.4786,306.6703,48.9164,0,U,25876,999,37826,.17155E-3,.83E-5,0
HELIOS 1B,1999-064A,2026-06-26T06:09:33.757344,14.88029123,.00025111,98.1609,82.6586,79.0089,281.1409,0,U,25977,999,70140,.15270814E-3,.1344E-4,0
TERRA,1999-068A,2026-06-26T06:19:10.077312,14.61109702,.00023005,97.9452,226.4496,163.0982,261.6304,0,U,25994,999,41093,.83231425E-4,.365E-5,0
SL-16 R/B,2000-006B,2026-06-26T05:59:41.529408,14.15838114,.00161022,71.0014,229.5699,8.8446,351.2957,0,U,26070,999,36392,.1757103E-3,.298E-5,0
TITAN 4B R/B,2000-047B,2026-06-26T03:12:28.867680,15.10244426,.00459305,67.9892,95.3902,277.9609,81.6329,0,U,26474,999,40928,.18899609E-3,.3036E-4,0
ENVISAT,2002-009A,2026-06-26T07:13:12.042912,14.39066774,.00014113,98.3838,128.4162,87.5719,39.8745,0,U,27386,999,27479,.37354205E-4,.73E-6,0
IDEFIX & ARIANE 42P R/B,2002-021B,2026-06-26T06:55:44.429952,14.31085896,.00108082,98.5943,114.6732,224.1651,135.8670,0,U,27422,999,25955,.84387082E-4,.179E-5,0
AQUA,2002-022A,2026-06-26T05:21:43.274592,14.62170836,.00007915,98.4280,146.6869,65.7405,351.9250,0,U,27424,999,28459,.16025961E-3,.757E-5,0
CZ-4B R/B,2002-024C,2026-06-26T00:16:55.802208,14.14565486,.00511907,98.8696,229.7745,75.7001,348.3936,0,U,27432,999,24455,.32129359E-4,.19E-6,0
MIDORI II (ADEOS-II),2002-056A,2026-06-25T21:19:04.877760,14.29353932,.00021035,98.7882,136.2222,65.7989,294.3412,0,U,27597,999,22575,.10698919E-3,.227E-5,0
H-2A R/B,2002-056E,2026-06-25T20:49:02.354304,14.33825544,.00696427,98.3315,133.2256,198.3875,186.7133,0,U,27601,999,22961,.7884019E-4,.183E-5,0
CZ-4B R/B,2003-049C,2026-06-25T23:08:29.024448,14.55105298,.00468907,98.6898,176.1602,261.1128,98.4758,0,U,28059,999,20234,.72716147E-4,.266E-5,0
CZ-2C R/B,2004-012C,2026-06-26T03:42:46.353024,15.80721677,.0010483,97.7081,253.8715,249.5136,110.5006,0,U,28222,999,22131,.58519244E-3,.113336E-2,0
SL-16 R/B,2004-021B,2026-06-26T05:05:54.415968,14.14607280,.00068807,71.0005,4.7473,243.1726,116.8693,0,U,28353,999,13818,.71353702E-4,.9E-6,0
CZ-4B R/B,2004-035C,2026-06-26T06:50:02.503680,15.30747469,.00290669,97.3366,210.2556,304.0459,55.8023,0,U,28415,999,19651,.27412028E-3,.8174E-4,0
CZ-2C R/B,2004-046B,2026-06-26T05:40:43.608576,14.27028388,.01389866,98.1939,85.4517,193.3678,166.3807,0,U,28480,999,12398,.43823968E-4,.77E-6,0
ARIANE 5 R/B,2004-049H,2026-06-26T05:22:16.152384,14.85459066,.00838339,98.2726,349.8259,0.2640,359.8603,0,U,28499,999,16190,.65386056E-4,.535E-5,0
CZ-2D R/B,2005-024B,2026-06-26T00:21:37.469664,15.70498789,.00015511,97.3478,196.8888,31.5849,328.5507,0,U,28738,999,15672,.5034931E-3,.61899E-3,0
ALOS (DAICHI),2006-002A,2026-06-25T20:54:10.390176,14.70065996,.00011366,98.1327,132.4114,59.2586,300.8732,0,U,28931,999,8937,.17023935E-3,.973E-5,0
