SL-16 R/B               
1 23405U 94077B   26177.23635567  .00000172  00000+0  11247-3 0  9998
2 23405  70.9827 124.1247 0003417 320.1068  39.9803 14.15577022631595
ARIANE 40+ R/B          
1 23561U 95021B   26177.15637354  .00000224  00000+0  85229-4 0  9998
2 23561  98.4408 247.1017 0007026 166.9741 246.3819 14.39837851634851
SL-16 R/B               
1 23705U 95058B   26176.82455642 -.00000037  00000+0  52604-5 0  9994
2 23705  71.0229 313.2231 0014319 308.5505  51.4334 14.15512019583150
SL-16 R/B               
1 24298U 96051B   26176.81298390  .00000118  00000+0  90524-4 0  9991
2 24298  70.7650 306.3931 0016205 324.3969  35.6069 14.12448848536914
ORBVIEW 2 (SEASTAR)     
1 24883U 97037A   26177.22025964  .00000250  00000+0  10297-3 0  9992
2 24883  98.8694 344.4899 0003328  98.3377 261.8185 14.35557691524047
SL-16 R/B               
1 25400U 98043G   26176.85257928  .00000033  00000+0  32941-4 0  9991
2 25400  98.8367 131.0866 0010867  63.8391 296.3905 14.26069931454403
SL-16 R/B               
1 25407U 98045B   26176.78244177  .00000196  00000+0  12315-3 0  9996
2 25407  71.0120 314.2524 0008991 230.4733 129.5596 14.16203221442404
ISS (ZARYA)             
1 25544U 98067A   26177.15504249  .00009461  00000+0  17697-3 0  9995
2 25544  51.6325 255.7018 0004358 233.1468 126.9121 15.49434804573143
CZ-4B R/B               
1 25732U 99025C   26177.09620780  .00000050  00000+0  44934-4 0  9991
2 25732  98.6480 218.7104 0037719  34.5785  19.4363 14.18284810403536
OKEAN-O                 
1 25860U 99039A   26177.13387877  .00000567  00000+0  80884-4 0  9997
2 25860  97.9313 235.8290 0001325  70.1246 290.0109 14.80477262450433
SL-16 R/B               
1 25861U 99039B   26177.14733720  .00000462  00000+0  65153-4 0  9997
2 25861  97.9834 235.9848 0013379 264.8931  95.0755 14.81853160452929
DELTA 2 R/B             
1 25876U 99041E   26176.52761297  .00000830  00000+0  17155-3 0  9994
2 25876  51.7634 230.4786 0500950 306.6703  48.9164 14.12028352378266
HELIOS 1B               
1 25977U 99064A   26177.25664071  .00001344  00000+0  15271-3 0  9992
2 25977  98.1609  82.6586 0002511  79.0089 281.1409 14.88029123701407
TERRA                   
1 25994U 99068A   26177.26331108  .00000365  00000+0  83231-4 0  9992
2 25994  97.9452 226.4496 0002300 163.0982 261.6304 14.61109702410934
SL-16 R/B               
1 26070U 00006B   26177.24978622  .00000298  00000+0  17571-3 0  9996
2 26070  71.0014 229.5699 0016102   8.8446 351.2957 14.15838114363923
TITAN 4B R/B            
1 26474U 00047B   26177.13366745  .00003036  00000+0  18900-3 0  9994
2 26474  67.9892  95.3902 0045930 277.9609  81.6329 15.10244426409286
ENVISAT                 
1 27386U 02009A   26177.30083383  .00000073  00000+0  37354-4 0  9993
2 27386  98.3838 128.4162 0001411  87.5719  39.8745 14.39066774274797
IDEFIX & ARIANE 42P R/B 
1 27422U 02021B   26177.28870868  .00000179  00000+0  84387-4 0  9992
2 27422  98.5943 114.6732 0010808 224.1651 135.8670 14.31085896259550
AQUA                    
1 27424U 02022A   26177.22341753  .00000757  00000+0  16026-3 0  9991
2 27424  98.4280 146.6869 0000791  65.7405 351.9250 14.62170836284597
CZ-4B R/B               
1 27432U 02024C   26177.01175697  .00000019  00000+0  32129-4 0  9995
2 27432  98.8696 229.7745 0051190  75.7001 348.3936 14.14565486244558
MIDORI II (ADEOS-II)    
1 27597U 02056A   26176.88825090  .00000227  00000+0  10699-3 0  9993
2 27597  98.7882 136.2222 0002103  65.7989 294.3412 14.29353932225759
H-2A R/B                
1 27601U 02056E   26176.86738836  .00000183  00000+0  78840-4 0  9992
2 27601  98.3315 133.2256 0069642 198.3875 186.7133 14.33825544229615
CZ-4B R/B               
1 28059U 03049C   26176.96422482  .00000266  00000+0  72716-4 0  9999
2 28059  98.6898 176.1602 0046890 261.1128  98.4758 14.55105298202347
CZ-2C R/B               
1 28222U 04012C   26177.15470316  .00113336  00000+0  58519-3 0  9990
2 28222  97.7081 253.8715 0010483 249.5136 110.5006 15.80721677221313
SL-16 R/B               
1 28353U 04021B   26177.21243537  .00000090  00000+0  71354-4 0  9990
2 28353  71.0005   4.7473 0006880 243.1726 116.8693 14.14607280138186
CZ-4B R/B               
1 28415U 04035C   26177.28475120  .00008174  00000+0  27412-3 0  9992
2 28415  97.3366 210.2556 0029066 304.0459  55.8023 15.30747469196516
CZ-2C R/B               
1 28480U 04046B   26177.23661584  .00000077  00000+0  43824-4 0  9992
2 28480  98.1939  85.4517 0138986 193.3678 166.3807 14.27028388123982
ARIANE 5 R/B            
1 28499U 04049H   26177.22379806  .00000535  00000+0  65386-4 0  9993
2 28499  98.2726 349.8259 0083833   0.2640 359.8603 14.85459066161904
CZ-2D R/B               
1 28738U 05024B   26177.01501701  .00061899  00000+0  50349-3 0  9993
2 28738  97.3478 196.8888 0001551  31.5849 328.5507 15.70498789156727
ALOS (DAICHI)           
1 28931U 06002A   26176.87095359  .00000973  00000+0  17024-3 0  9994
2 28931  98.1327 132.4114 0001136  59.2586 300.8732 14.70065996 89374
